{
"type": "FeatureCollection",
"name": "venues",
"crs": { "type": "name", "properties": { "name": "urn:ogc:def:crs:OGC:1.3:CRS84" } },
"features": [
{ "type": "Feature", "properties": { "id": "911-museum", "name": "9/11 Memorial & Museum", "dcla_match": "National September 11 Memorial and Museum at the World Trade Center", "category": "History", "address": "180 Greenwich Street, New York, NY 10007", "website": "https://www.911memorial.org/visit/visit-museum-1", "adult_price": 36, "student_price": 24, "ny_resident_price": null, "under_25_price": null, "standard_price_label": "$24-$36", "hours": { "mon": [ 9, 19 ], "tue": null, "wed": [ 9, 19 ], "thu": [ 9, 19 ], "fri": [ 9, 19 ], "sat": [ 9, 19 ], "sun": [ 9, 19 ] }, "access_programs": [ { "days": [ "mon" ], "start": 17.5, "end": 19, "price": 0, "label": "Free Admission Mondays, 5:30-7 PM", "eligibility": "all", "frequency": "weekly", "reservation_required": true } ], "temporarily_closed": false, "notes": "Last admission is 60 minutes before closing.", "latitude": 40.711425, "longitude": -74.015442, "data_checked": "2026-07-24", "data_status": "verified-profile", "data_confidence": "Hours and prices manually checked", "admission_source": "https://www.nyc.gov/site/dcla/resources/free-and-suggested-admission.page", "network_node": 5215013215, "nearest_station": "WTC Cortlandt", "nearest_station_routes": "1", "nearest_station_ada": 1, "nearest_station_gtfs_id": "138", "station_walk_m": 393.5, "nearest_ada_station": "WTC Cortlandt", "nearest_ada_station_routes": "1", "nearest_ada_station_gtfs_id": "138", "ada_station_walk_m": 393.5, "columbia_euclidean_m": 11591.1, "columbia_walk_network_m": 12040.9, "network_detour_ratio": 1.039, "columbia_transit_station_path": [ "116", "117", "118", "119", "120", "123", "127", "128", "132", "137", "138" ], "columbia_transit_state_path": [ "116|1", "117|1", "118|1", "119|1", "120|1", "120|3", "123|3", "127|3", "128|3", "132|3", "137|3", "137|1", "138|1" ], "columbia_transit_routes": "1 3 1", "columbia_transit_transfer_count": 2, "columbia_transit_ride_min": 31.0, "columbia_transit_total_min": 43.6, "columbia_transit_destination_station_id": "138", "columbia_transit_destination_station_name": "WTC Cortlandt", "columbia_transit_egress_walk_m": 288.9 }, "geometry": { "type": "Point", "coordinates": [ -74.015442, 40.711425 ] } },
{ "type": "Feature", "properties": { "id": "asia-society", "name": "Asia Society Museum", "dcla_match": "Asia Society", "category": "Art & Culture", "address": "725 Park Avenue, New York, NY 10021", "website": "https://asiasociety.org/new-york/plan-your-visit", "adult_price": 15, "student_price": 10, "ny_resident_price": null, "under_25_price": null, "standard_price_label": "$15 adult / $10 student", "hours": { "mon": null, "tue": [ 11, 18 ], "wed": [ 11, 18 ], "thu": [ 11, 18 ], "fri": [ 11, 18 ], "sat": [ 11, 18 ], "sun": [ 11, 18 ] }, "access_programs": [ { "days": [ "fri" ], "start": 11, "end": 18, "price": 0, "label": "Free admission on Fridays", "eligibility": "all", "frequency": "weekly", "reservation_required": false } ], "temporarily_closed": false, "notes": "Friday closing time can vary by season and exhibition.", "latitude": 40.770032, "longitude": -73.964594, "data_checked": "2026-07-24", "data_status": "verified-profile", "data_confidence": "Hours and prices manually checked", "admission_source": "https://www.nyc.gov/site/dcla/resources/free-and-suggested-admission.page", "network_node": 10167967036, "nearest_station": "68 St-Hunter College", "nearest_station_routes": "6", "nearest_station_ada": 1, "nearest_station_gtfs_id": "628", "station_walk_m": 285.3, "nearest_ada_station": "68 St-Hunter College", "nearest_ada_station_routes": "6", "nearest_ada_station_gtfs_id": "628", "ada_station_walk_m": 285.3, "columbia_euclidean_m": 4187.6, "columbia_walk_network_m": 5214.6, "network_detour_ratio": 1.245, "columbia_transit_station_path": [ "116", "117", "118", "119", "120", "123", "127", "902", "901", "631", "629", "628" ], "columbia_transit_state_path": [ "116|1", "117|1", "118|1", "119|1", "120|1", "120|3", "123|3", "127|3", "902|S", "901|S", "631|4", "629|4", "628|4" ], "columbia_transit_routes": "1 3 S 4", "columbia_transit_transfer_count": 3, "columbia_transit_ride_min": 29.5, "columbia_transit_total_min": 41.9, "columbia_transit_destination_station_id": "628", "columbia_transit_destination_station_name": "68 St-Hunter College", "columbia_transit_egress_walk_m": 272.6 }, "geometry": { "type": "Point", "coordinates": [ -73.964594, 40.770032 ] } },
{ "type": "Feature", "properties": { "id": "china-institute", "name": "China Institute Gallery", "dcla_match": "China Institute in America", "category": "Art & Culture", "address": "100 Washington Street, New York, NY 10006", "website": "https://chinainstitute.org/gallery-exhibitions/", "adult_price": 15, "student_price": 10, "ny_resident_price": null, "under_25_price": null, "standard_price_label": "$15 adult / $10 student", "hours": { "mon": [ 10, 17 ], "tue": [ 10, 17 ], "wed": [ 10, 17 ], "thu": [ 10, 20 ], "fri": [ 10, 20 ], "sat": [ 10, 17 ], "sun": [ 10, 17 ] }, "access_programs": [ { "days": [ "thu", "fri" ], "start": 17, "end": 20, "price": 0, "label": "Free Thursday and Friday, 5-8 PM", "eligibility": "all", "frequency": "weekly", "reservation_required": false } ], "temporarily_closed": false, "notes": "Hours apply when an exhibition is on view.", "latitude": 40.708494, "longitude": -74.014291, "data_checked": "2026-07-24", "data_status": "verified-profile", "data_confidence": "Hours and prices manually checked", "admission_source": "https://www.nyc.gov/site/dcla/resources/free-and-suggested-admission.page", "network_node": 8279851847, "nearest_station": "Rector St", "nearest_station_routes": "1", "nearest_station_ada": 0, "nearest_station_gtfs_id": "139", "station_walk_m": 129.8, "nearest_ada_station": "Cortlandt St", "nearest_ada_station_routes": "R W", "nearest_ada_station_gtfs_id": "R25", "ada_station_walk_m": 480.9, "columbia_euclidean_m": 11856.7, "columbia_walk_network_m": 12269.5, "network_detour_ratio": 1.035, "columbia_transit_station_path": [ "116", "117", "118", "119", "120", "123", "127", "128", "132", "137", "138", "139" ], "columbia_transit_state_path": [ "116|1", "117|1", "118|1", "119|1", "120|1", "120|3", "123|3", "127|3", "128|3", "132|3", "137|3", "137|1", "138|1", "139|1" ], "columbia_transit_routes": "1 3 1", "columbia_transit_transfer_count": 2, "columbia_transit_ride_min": 32.5, "columbia_transit_total_min": 43.0, "columbia_transit_destination_station_id": "139", "columbia_transit_destination_station_name": "Rector St", "columbia_transit_egress_walk_m": 121.3 }, "geometry": { "type": "Point", "coordinates": [ -74.014291, 40.708494 ] } },
{ "type": "Feature", "properties": { "id": "cooper-hewitt", "name": "Cooper Hewitt, Smithsonian Design Museum", "dcla_match": "Cooper-Hewitt, National Design Museum", "category": "Design", "address": "2 East 91st Street, New York, NY 10128", "website": "https://www.cooperhewitt.org/visit/plan-your-visit/", "adult_price": 22, "student_price": 10, "ny_resident_price": null, "under_25_price": null, "standard_price_label": "$22 adult / $10 student", "hours": { "mon": [ 10, 18 ], "tue": [ 10, 18 ], "wed": [ 10, 18 ], "thu": [ 10, 18 ], "fri": [ 10, 18 ], "sat": [ 10, 18 ], "sun": [ 10, 18 ] }, "access_programs": [ { "days": [ "mon", "tue", "wed", "thu", "fri", "sat", "sun" ], "start": 17, "end": 18, "price": 1, "label": "Pay what you wish, 5-6 PM daily", "eligibility": "all", "frequency": "daily", "reservation_required": false } ], "temporarily_closed": false, "notes": "The filter represents pay-what-you-wish as $1.", "latitude": 40.784607, "longitude": -73.957866, "data_checked": "2026-07-24", "data_status": "verified-profile", "data_confidence": "Hours and prices manually checked", "admission_source": "https://www.nyc.gov/site/dcla/resources/free-and-suggested-admission.page", "network_node": 5306313701, "nearest_station": "96 St", "nearest_station_routes": "6", "nearest_station_ada": 0, "nearest_station_gtfs_id": "625", "station_walk_m": 844.1, "nearest_ada_station": "86 St", "nearest_ada_station_routes": "4 5 6", "nearest_ada_station_gtfs_id": "626", "ada_station_walk_m": 858.8, "columbia_euclidean_m": 2593.5, "columbia_walk_network_m": 3313.9, "network_detour_ratio": 1.278, "columbia_transit_station_path": [ "116", "117", "118", "119", "120", "121", "122", "123", "124", "125", "A24", "A22", "A21", "A20" ], "columbia_transit_state_path": [ "116|1", "117|1", "118|1", "119|1", "120|1", "121|1", "122|1", "123|1", "124|1", "125|1", "A24|B", "A22|B", "A21|B", "A20|B" ], "columbia_transit_routes": "1 B", "columbia_transit_transfer_count": 1, "columbia_transit_ride_min": 22.0, "columbia_transit_total_min": 46.0, "columbia_transit_destination_station_id": "A20", "columbia_transit_destination_station_name": "86 St", "columbia_transit_egress_walk_m": 1202.4 }, "geometry": { "type": "Point", "coordinates": [ -73.957866, 40.784607 ] } },
{ "type": "Feature", "properties": { "id": "frick", "name": "The Frick Collection", "dcla_match": "Frick Collection", "category": "Art", "address": "1 East 70th Street, New York, NY 10021", "website": "https://www.frick.org/visit", "adult_price": 30, "student_price": 17, "ny_resident_price": null, "under_25_price": null, "standard_price_label": "$30 adult / $17 student", "hours": { "mon": [ 10.5, 17.5 ], "tue": null, "wed": [ 10.5, 17.5 ], "thu": [ 10.5, 17.5 ], "fri": [ 10.5, 17.5 ], "sat": [ 10.5, 17.5 ], "sun": [ 10.5, 17.5 ] }, "access_programs": [ { "days": [ "wed" ], "start": 13.5, "end": 17.5, "price": 1, "label": "Pay what you wish Wednesday, 1:30-5:30 PM", "eligibility": "all", "frequency": "weekly", "reservation_required": true }, { "days": [ "fri" ], "start": 17.5, "end": 21, "price": 0, "label": "Free First Friday, 5:30-9 PM", "eligibility": "all", "frequency": "first-friday", "reservation_required": true } ], "temporarily_closed": false, "notes": "Late hours occur on selected First Fridays, not every Friday.", "latitude": 40.771054, "longitude": -73.967749, "data_checked": "2026-07-24", "data_status": "verified-profile", "data_confidence": "Hours and prices manually checked", "admission_source": "https://www.nyc.gov/site/dcla/resources/free-and-suggested-admission.page", "network_node": 7797632761, "nearest_station": "68 St-Hunter College", "nearest_station_routes": "6", "nearest_station_ada": 1, "nearest_station_gtfs_id": "628", "station_walk_m": 604.3, "nearest_ada_station": "68 St-Hunter College", "nearest_ada_station_routes": "6", "nearest_ada_station_gtfs_id": "628", "ada_station_walk_m": 604.3, "columbia_euclidean_m": 4093.9, "columbia_walk_network_m": 4897.4, "network_detour_ratio": 1.196, "columbia_transit_station_path": [ "116", "117", "118", "119", "120", "121", "122", "123", "124", "125", "A24", "A22" ], "columbia_transit_state_path": [ "116|1", "117|1", "118|1", "119|1", "120|1", "121|1", "122|1", "123|1", "124|1", "125|1", "A24|C", "A22|C" ], "columbia_transit_routes": "1 C", "columbia_transit_transfer_count": 1, "columbia_transit_ride_min": 19.0, "columbia_transit_total_min": 41.3, "columbia_transit_destination_station_id": "A22", "columbia_transit_destination_station_name": "72 St", "columbia_transit_egress_walk_m": 1060.8 }, "geometry": { "type": "Point", "coordinates": [ -73.967749, 40.771054 ] } },
{ "type": "Feature", "properties": { "id": "guggenheim", "name": "Solomon R. Guggenheim Museum", "dcla_match": null, "category": "Art", "address": "1071 Fifth Avenue, New York, NY 10128", "website": "https://www.guggenheim.org/plan-your-visit", "adult_price": 30, "student_price": 19, "ny_resident_price": null, "under_25_price": null, "standard_price_label": "$30 adult / $19 student", "hours": { "mon": [ 10.5, 17.5 ], "tue": [ 10.5, 17.5 ], "wed": [ 10.5, 17.5 ], "thu": [ 10.5, 17.5 ], "fri": [ 10.5, 17.5 ], "sat": [ 10.5, 17.5 ], "sun": [ 10.5, 17.5 ] }, "access_programs": [ { "days": [ "tue", "sun" ], "start": 16, "end": 17.5, "price": 1, "label": "Pay what you wish Tuesday and Sunday, 4-5:30 PM", "eligibility": "all", "frequency": "weekly", "reservation_required": true } ], "temporarily_closed": false, "notes": "The filter represents pay-what-you-wish as $1.", "latitude": 40.78298, "longitude": -73.95897, "data_checked": "2026-07-24", "data_status": "verified-profile", "data_confidence": "Hours and prices manually checked", "admission_source": "https://www.nyc.gov/site/dcla/resources/free-and-suggested-admission.page", "network_node": 5306314450, "nearest_station": "86 St", "nearest_station_routes": "4 5 6", "nearest_station_ada": 2, "nearest_station_gtfs_id": "626", "station_walk_m": 626.4, "nearest_ada_station": "86 St", "nearest_ada_station_routes": "4 5 6", "nearest_ada_station_gtfs_id": "626", "ada_station_walk_m": 626.4, "columbia_euclidean_m": 2760.8, "columbia_walk_network_m": 3489.7, "network_detour_ratio": 1.264, "columbia_transit_station_path": [ "116", "117", "118", "119", "120", "121", "122", "123", "124", "125", "A24", "A22", "A21", "A20" ], "columbia_transit_state_path": [ "116|1", "117|1", "118|1", "119|1", "120|1", "121|1", "122|1", "123|1", "124|1", "125|1", "A24|B", "A22|B", "A21|B", "A20|B" ], "columbia_transit_routes": "1 B", "columbia_transit_transfer_count": 1, "columbia_transit_ride_min": 22.0, "columbia_transit_total_min": 45.2, "columbia_transit_destination_station_id": "A20", "columbia_transit_destination_station_name": "86 St", "columbia_transit_egress_walk_m": 1133.6 }, "geometry": { "type": "Point", "coordinates": [ -73.95897, 40.78298 ] } },
{ "type": "Feature", "properties": { "id": "icp", "name": "International Center of Photography", "dcla_match": "International Center of Photography", "category": "Photography", "address": "84 Ludlow Street, New York, NY 10002", "website": "https://www.icp.org/visit", "adult_price": 18, "student_price": 12, "ny_resident_price": null, "under_25_price": null, "standard_price_label": "$18 adult / $12 student", "hours": { "mon": [ 10.5, 18.5 ], "tue": [ 10.5, 18.5 ], "wed": [ 10.5, 18.5 ], "thu": [ 10.5, 20 ], "fri": [ 10.5, 18.5 ], "sat": [ 10.5, 18.5 ], "sun": [ 10.5, 18.5 ] }, "access_programs": [ { "days": [ "thu" ], "start": 17, "end": 20, "price": 5, "label": "$5 Thursday evenings, 5-8 PM", "eligibility": "all", "frequency": "weekly", "reservation_required": false } ], "temporarily_closed": false, "notes": "DCLA lists a monthly free Thursday; ICP currently advertises $5 every Thursday.", "latitude": 40.718142, "longitude": -73.989336, "data_checked": "2026-07-24", "data_status": "verified-profile", "data_confidence": "Hours and prices manually checked", "admission_source": "https://www.nyc.gov/site/dcla/resources/free-and-suggested-admission.page", "network_node": 13031082086, "nearest_station": "Delancey St-Essex St", "nearest_station_routes": "F", "nearest_station_ada": 0, "nearest_station_gtfs_id": "F15", "station_walk_m": 198.2, "nearest_ada_station": "Canal St", "nearest_ada_station_routes": "6", "nearest_ada_station_gtfs_id": "639", "ada_station_walk_m": 1168.7, "columbia_euclidean_m": 10206.4, "columbia_walk_network_m": 11168.8, "network_detour_ratio": 1.094, "columbia_transit_station_path": [ "116", "117", "118", "119", "120", "121", "122", "123", "124", "125", "A24", "A27", "A28", "A31", "A32", "D20", "D21", "F14", "F15" ], "columbia_transit_state_path": [ "116|1", "117|1", "118|1", "119|1", "120|1", "121|1", "122|1", "123|1", "124|1", "125|1", "A24|A", "A27|A", "A28|A", "A31|A", "A32|A", "D20|F", "D21|F", "F14|F", "F15|F" ], "columbia_transit_routes": "1 A F", "columbia_transit_transfer_count": 2, "columbia_transit_ride_min": 34.0, "columbia_transit_total_min": 44.6, "columbia_transit_destination_station_id": "F15", "columbia_transit_destination_station_name": "Delancey St-Essex St", "columbia_transit_egress_walk_m": 126.3 }, "geometry": { "type": "Point", "coordinates": [ -73.989336, 40.718142 ] } },
{ "type": "Feature", "properties": { "id": "japan-society", "name": "Japan Society Gallery", "dcla_match": "Japan Society, Inc.", "category": "Art & Culture", "address": "333 East 47th Street, New York, NY 10017", "website": "https://japansociety.org/about/visit-us/", "adult_price": 12, "student_price": 8, "ny_resident_price": null, "under_25_price": null, "standard_price_label": "$12 adult / $8 student", "hours": { "mon": null, "tue": [ 11, 17 ], "wed": [ 11, 17 ], "thu": [ 11, 17 ], "fri": [ 11, 17 ], "sat": [ 12, 18 ], "sun": [ 12, 18 ] }, "access_programs": [ { "days": [ "fri" ], "start": 17, "end": 19, "price": 0, "label": "Free First Friday, 5-7 PM", "eligibility": "all", "frequency": "first-friday", "reservation_required": false } ], "temporarily_closed": false, "notes": "Gallery hours apply only when exhibitions are open.", "latitude": 40.75236, "longitude": -73.968404, "data_checked": "2026-07-24", "data_status": "verified-profile", "data_confidence": "Hours and prices manually checked", "admission_source": "https://www.nyc.gov/site/dcla/resources/free-and-suggested-admission.page", "network_node": 3830783523, "nearest_station": "51 St", "nearest_station_routes": "6", "nearest_station_ada": 1, "nearest_station_gtfs_id": "630", "station_walk_m": 833.1, "nearest_ada_station": "51 St", "nearest_ada_station_routes": "6", "nearest_ada_station_gtfs_id": "630", "ada_station_walk_m": 833.1, "columbia_euclidean_m": 6168.8, "columbia_walk_network_m": 7647.9, "network_detour_ratio": 1.24, "columbia_transit_station_path": [ "116", "117", "118", "119", "120", "123", "127", "725", "724", "723" ], "columbia_transit_state_path": [ "116|1", "117|1", "118|1", "119|1", "120|1", "120|3", "123|3", "127|3", "725|7", "724|7", "723|7" ], "columbia_transit_routes": "1 3 7", "columbia_transit_transfer_count": 2, "columbia_transit_ride_min": 23.5, "columbia_transit_total_min": 42.6, "columbia_transit_destination_station_id": "723", "columbia_transit_destination_station_name": "Grand Central-42 St", "columbia_transit_egress_walk_m": 807.9 }, "geometry": { "type": "Point", "coordinates": [ -73.968404, 40.75236 ] } },
{ "type": "Feature", "properties": { "id": "jewish-museum", "name": "The Jewish Museum", "dcla_match": "Jewish Museum", "category": "Art & Culture", "address": "1109 Fifth Avenue, New York, NY 10128", "website": "https://thejewishmuseum.org/visit/", "adult_price": 24, "student_price": 10, "ny_resident_price": null, "under_25_price": null, "standard_price_label": "$24 adult / $10 student", "hours": { "mon": [ 11, 18 ], "tue": null, "wed": null, "thu": [ 11, 20 ], "fri": [ 11, 18 ], "sat": [ 11, 18 ], "sun": [ 11, 18 ] }, "access_programs": [ { "days": [ "sat" ], "start": 11, "end": 18, "price": 0, "label": "Free admission on Saturdays", "eligibility": "all", "frequency": "weekly", "reservation_required": false } ], "temporarily_closed": false, "notes": "Open until 8 PM on Thursdays, but Saturday is the recurring free day.", "latitude": 40.785298, "longitude": -73.957263, "data_checked": "2026-07-24", "data_status": "verified-profile", "data_confidence": "Hours and prices manually checked", "admission_source": "https://www.nyc.gov/site/dcla/resources/free-and-suggested-admission.page", "network_node": 7093620717, "nearest_station": "96 St", "nearest_station_routes": "6", "nearest_station_ada": 0, "nearest_station_gtfs_id": "625", "station_walk_m": 759.1, "nearest_ada_station": "86 St", "nearest_ada_station_routes": "4 5 6", "nearest_ada_station_gtfs_id": "626", "ada_station_walk_m": 943.0, "columbia_euclidean_m": 2526.1, "columbia_walk_network_m": 3229.0, "network_detour_ratio": 1.278, "columbia_transit_station_path": [ "116", "115", "114", "113", "112", "A09", "A12", "A15", "A16", "A17", "A18", "A19" ], "columbia_transit_state_path": [ "116|1", "115|1", "114|1", "113|1", "112|1", "A09|A", "A12|A", "A15|A", "A16|A", "A17|A", "A18|A", "A19|A" ], "columbia_transit_routes": "1 A", "columbia_transit_transfer_count": 1, "columbia_transit_ride_min": 22.5, "columbia_transit_total_min": 46.6, "columbia_transit_destination_station_id": "A19", "columbia_transit_destination_station_name": "96 St", "columbia_transit_egress_walk_m": 1205.1 }, "geometry": { "type": "Point", "coordinates": [ -73.957263, 40.785298 ] } },
{ "type": "Feature", "properties": { "id": "morgan", "name": "The Morgan Library & Museum", "dcla_match": "Pierpont Morgan Library", "category": "Art & Books", "address": "225 Madison Avenue, New York, NY 10016", "website": "https://www.themorgan.org/visit", "adult_price": 25, "student_price": 13, "ny_resident_price": null, "under_25_price": null, "standard_price_label": "$25 adult / $13 student", "hours": { "mon": null, "tue": [ 10.5, 17 ], "wed": [ 10.5, 17 ], "thu": [ 10.5, 17 ], "fri": [ 10.5, 20 ], "sat": [ 10.5, 17 ], "sun": [ 10.5, 17 ] }, "access_programs": [ { "days": [ "fri" ], "start": 17, "end": 20, "price": 0, "label": "Free Friday, 5-8 PM", "eligibility": "all", "frequency": "weekly", "reservation_required": true } ], "temporarily_closed": false, "notes": "Free Friday tickets are released one week in advance.", "latitude": 40.749387, "longitude": -73.981763, "data_checked": "2026-07-24", "data_status": "verified-profile", "data_confidence": "Hours and prices manually checked", "admission_source": "https://www.nyc.gov/site/dcla/resources/free-and-suggested-admission.page", "network_node": 368051258, "nearest_station": "Grand Central-42 St", "nearest_station_routes": "S", "nearest_station_ada": 1, "nearest_station_gtfs_id": "901", "station_walk_m": 419.4, "nearest_ada_station": "Grand Central-42 St", "nearest_ada_station_routes": "S", "nearest_ada_station_gtfs_id": "901", "ada_station_walk_m": 419.4, "columbia_euclidean_m": 6678.6, "columbia_walk_network_m": 7461.7, "network_detour_ratio": 1.117, "columbia_transit_station_path": [ "116", "117", "118", "119", "120", "123", "127", "902", "901" ], "columbia_transit_state_path": [ "116|1", "117|1", "118|1", "119|1", "120|1", "120|3", "123|3", "127|3", "902|S", "901|S" ], "columbia_transit_routes": "1 3 S", "columbia_transit_transfer_count": 2, "columbia_transit_ride_min": 22.0, "columbia_transit_total_min": 37.1, "columbia_transit_destination_station_id": "901", "columbia_transit_destination_station_name": "Grand Central-42 St", "columbia_transit_egress_walk_m": 484.9 }, "geometry": { "type": "Point", "coordinates": [ -73.981763, 40.749387 ] } },
{ "type": "Feature", "properties": { "id": "mjh", "name": "Museum of Jewish Heritage", "dcla_match": "Museum of Jewish Heritage  A Living Memorial to the Holocaust", "category": "History", "address": "36 Battery Place, New York, NY 10280", "website": "https://mjhnyc.org/visitor-information/", "adult_price": 18, "student_price": 12, "ny_resident_price": null, "under_25_price": null, "standard_price_label": "$18 adult / $12 student", "hours": { "mon": null, "tue": null, "wed": [ 10, 17 ], "thu": [ 10, 20 ], "fri": [ 10, 17 ], "sat": null, "sun": [ 10, 17 ] }, "access_programs": [ { "days": [ "thu" ], "start": 16, "end": 20, "price": 0, "label": "Free Thursday, 4-8 PM", "eligibility": "all", "frequency": "weekly", "reservation_required": true } ], "temporarily_closed": false, "notes": "Advance free-admission reservation is recommended.", "latitude": 40.705806, "longitude": -74.018001, "data_checked": "2026-07-24", "data_status": "verified-profile", "data_confidence": "Hours and prices manually checked", "admission_source": "https://www.nyc.gov/site/dcla/resources/free-and-suggested-admission.page", "network_node": 7208978993, "nearest_station": "Bowling Green", "nearest_station_routes": "4 5", "nearest_station_ada": 1, "nearest_station_gtfs_id": "420", "station_walk_m": 436.0, "nearest_ada_station": "Bowling Green", "nearest_ada_station_routes": "4 5", "nearest_ada_station_gtfs_id": "420", "ada_station_walk_m": 436.0, "columbia_euclidean_m": 12250.9, "columbia_walk_network_m": 12711.0, "network_detour_ratio": 1.038, "columbia_transit_station_path": [ "116", "117", "118", "119", "120", "123", "127", "128", "132", "137", "138", "139" ], "columbia_transit_state_path": [ "116|1", "117|1", "118|1", "119|1", "120|1", "120|3", "123|3", "127|3", "128|3", "132|3", "137|3", "137|1", "138|1", "139|1" ], "columbia_transit_routes": "1 3 1", "columbia_transit_transfer_count": 2, "columbia_transit_ride_min": 32.5, "columbia_transit_total_min": 46.7, "columbia_transit_destination_station_id": "139", "columbia_transit_destination_station_name": "Rector St", "columbia_transit_egress_walk_m": 418.4 }, "geometry": { "type": "Point", "coordinates": [ -74.018001, 40.705806 ] } },
{ "type": "Feature", "properties": { "id": "moma", "name": "The Museum of Modern Art", "dcla_match": "Museum of Modern Art", "category": "Art", "address": "11 West 53rd Street, New York, NY 10019", "website": "https://www.moma.org/visit/", "adult_price": 30, "student_price": 17, "ny_resident_price": null, "under_25_price": null, "standard_price_label": "$30 adult / $17 student", "hours": { "mon": [ 10.5, 17.5 ], "tue": [ 10.5, 17.5 ], "wed": [ 10.5, 17.5 ], "thu": [ 10.5, 17.5 ], "fri": [ 10.5, 20.5 ], "sat": [ 10.5, 17.5 ], "sun": [ 10.5, 17.5 ] }, "access_programs": [ { "days": [ "fri" ], "start": 17.5, "end": 20.5, "price": 0, "label": "Free Friday, 5:30-8:30 PM for NY State residents", "eligibility": "ny_resident", "frequency": "weekly", "reservation_required": true } ], "temporarily_closed": false, "notes": "Free Friday admission requires New York State residency.", "latitude": 40.761002, "longitude": -73.977201, "data_checked": "2026-07-24", "data_status": "verified-profile", "data_confidence": "Hours and prices manually checked", "admission_source": "https://www.nyc.gov/site/dcla/resources/free-and-suggested-admission.page", "network_node": 8941359204, "nearest_station": "5 Av/53 St", "nearest_station_routes": "E F", "nearest_station_ada": 0, "nearest_station_gtfs_id": "F12", "station_walk_m": 126.8, "nearest_ada_station": "57 St", "nearest_ada_station_routes": "M", "nearest_ada_station_gtfs_id": "B10", "ada_station_walk_m": 456.9, "columbia_euclidean_m": 5332.8, "columbia_walk_network_m": 6124.5, "network_detour_ratio": 1.148, "columbia_transit_station_path": [ "116", "117", "118", "119", "120", "121", "122", "123", "124", "125", "126" ], "columbia_transit_state_path": [ "116|1", "117|1", "118|1", "119|1", "120|1", "121|1", "122|1", "123|1", "124|1", "125|1", "126|1" ], "columbia_transit_routes": "1", "columbia_transit_transfer_count": 0, "columbia_transit_ride_min": 16.0, "columbia_transit_total_min": 33.1, "columbia_transit_destination_station_id": "126", "columbia_transit_destination_station_name": "50 St", "columbia_transit_egress_walk_m": 649.4 }, "geometry": { "type": "Point", "coordinates": [ -73.977201, 40.761002 ] } },
{ "type": "Feature", "properties": { "id": "neue-galerie", "name": "Neue Galerie New York", "dcla_match": "Neue Galerie New York", "category": "Art", "address": "1048 Fifth Avenue, New York, NY 10028", "website": "https://www.neuegalerie.org/visit", "adult_price": 28, "student_price": 15, "ny_resident_price": null, "under_25_price": null, "standard_price_label": "$28 adult / $15 student", "hours": { "mon": null, "tue": null, "wed": null, "thu": null, "fri": null, "sat": null, "sun": null }, "access_programs": [ ], "temporarily_closed": true, "notes": "Closed for Summer 2026 construction; reopening is planned for Autumn 2026.", "latitude": 40.781306, "longitude": -73.960324, "data_checked": "2026-07-24", "data_status": "verified-profile", "data_confidence": "Hours and prices manually checked", "admission_source": "https://www.nyc.gov/site/dcla/resources/free-and-suggested-admission.page", "network_node": 3392519873, "nearest_station": "86 St", "nearest_station_routes": "4 5 6", "nearest_station_ada": 2, "nearest_station_gtfs_id": "626", "station_walk_m": 490.7, "nearest_ada_station": "86 St", "nearest_ada_station_routes": "4 5 6", "nearest_ada_station_gtfs_id": "626", "ada_station_walk_m": 490.7, "columbia_euclidean_m": 2936.4, "columbia_walk_network_m": 3673.6, "network_detour_ratio": 1.251, "columbia_transit_station_path": [ "116", "117", "118", "119", "120", "121", "122", "123", "124", "125", "A24", "A22", "A21", "A20" ], "columbia_transit_state_path": [ "116|1", "117|1", "118|1", "119|1", "120|1", "121|1", "122|1", "123|1", "124|1", "125|1", "A24|B", "A22|B", "A21|B", "A20|B" ], "columbia_transit_routes": "1 B", "columbia_transit_transfer_count": 1, "columbia_transit_ride_min": 22.0, "columbia_transit_total_min": 44.8, "columbia_transit_destination_station_id": "A20", "columbia_transit_destination_station_name": "86 St", "columbia_transit_egress_walk_m": 1105.3 }, "geometry": { "type": "Point", "coordinates": [ -73.960324, 40.781306 ] } },
{ "type": "Feature", "properties": { "id": "nyhistory", "name": "The New York Historical", "dcla_match": "New-York Historical Society", "category": "History", "address": "170 Central Park West, New York, NY 10024", "website": "https://www.nyhistory.org/visit", "adult_price": 24, "student_price": 13, "ny_resident_price": null, "under_25_price": null, "standard_price_label": "$24 adult / $13 student", "hours": { "mon": null, "tue": [ 11, 17 ], "wed": [ 11, 17 ], "thu": [ 11, 17 ], "fri": [ 11, 20 ], "sat": [ 11, 17 ], "sun": [ 11, 17 ] }, "access_programs": [ { "days": [ "fri" ], "start": 17, "end": 20, "price": 1, "label": "Pay what you wish Friday, 5-8 PM", "eligibility": "all", "frequency": "weekly", "reservation_required": false } ], "temporarily_closed": false, "notes": "The filter represents pay-what-you-wish as $1.", "latitude": 40.779265, "longitude": -73.973743, "data_checked": "2026-07-24", "data_status": "verified-profile", "data_confidence": "Hours and prices manually checked", "admission_source": "https://www.nyc.gov/site/dcla/resources/free-and-suggested-admission.page", "network_node": 7104620795, "nearest_station": "81 St-Museum of Natural History", "nearest_station_routes": "C B", "nearest_station_ada": 0, "nearest_station_gtfs_id": "A21", "station_walk_m": 225.2, "nearest_ada_station": "72 St", "nearest_ada_station_routes": "1 2 3", "nearest_ada_station_gtfs_id": "123", "ada_station_walk_m": 954.5, "columbia_euclidean_m": 3295.0, "columbia_walk_network_m": 3789.4, "network_detour_ratio": 1.15, "columbia_transit_station_path": [ "116", "117", "118", "119", "120", "121", "122" ], "columbia_transit_state_path": [ "116|1", "117|1", "118|1", "119|1", "120|1", "121|1", "122|1" ], "columbia_transit_routes": "1", "columbia_transit_transfer_count": 0, "columbia_transit_ride_min": 9.5, "columbia_transit_total_min": 29.1, "columbia_transit_destination_station_id": "122", "columbia_transit_destination_station_name": "79 St", "columbia_transit_egress_walk_m": 844.9 }, "geometry": { "type": "Point", "coordinates": [ -73.973743, 40.779265 ] } },
{ "type": "Feature", "properties": { "id": "poster-house", "name": "Poster House", "dcla_match": "Poster House", "category": "Design", "address": "119 West 23rd Street, New York, NY 10011", "website": "https://www.posterhouse.org/hours-admission-location/", "adult_price": 15, "student_price": 10, "ny_resident_price": null, "under_25_price": null, "standard_price_label": "$15 adult / $10 student", "hours": { "mon": null, "tue": null, "wed": null, "thu": [ 10, 18 ], "fri": [ 10, 20 ], "sat": [ 10, 18 ], "sun": [ 10, 18 ] }, "access_programs": [ { "days": [ "fri" ], "start": 10, "end": 20, "price": 0, "label": "Free admission on Fridays", "eligibility": "all", "frequency": "weekly", "reservation_required": false } ], "temporarily_closed": false, "notes": "Friday is both the free day and the regular late-closing day.", "latitude": 40.743248, "longitude": -73.993591, "data_checked": "2026-07-24", "data_status": "verified-profile", "data_confidence": "Hours and prices manually checked", "admission_source": "https://www.nyc.gov/site/dcla/resources/free-and-suggested-admission.page", "network_node": 9971262470, "nearest_station": "23 St", "nearest_station_routes": "F M", "nearest_station_ada": 0, "nearest_station_gtfs_id": "D18", "station_walk_m": 12.7, "nearest_ada_station": "14 St", "nearest_ada_station_routes": "F M", "nearest_ada_station_gtfs_id": "D19", "ada_station_walk_m": 622.1, "columbia_euclidean_m": 7624.3, "columbia_walk_network_m": 8029.3, "network_detour_ratio": 1.053, "columbia_transit_station_path": [ "116", "117", "118", "119", "120", "123", "127", "128", "129", "130" ], "columbia_transit_state_path": [ "116|1", "117|1", "118|1", "119|1", "120|1", "120|2", "123|2", "127|2", "128|2", "129|2", "130|2" ], "columbia_transit_routes": "1 2", "columbia_transit_transfer_count": 1, "columbia_transit_ride_min": 21.0, "columbia_transit_total_min": 32.6, "columbia_transit_destination_station_id": "130", "columbia_transit_destination_station_name": "23 St", "columbia_transit_egress_walk_m": 207.6 }, "geometry": { "type": "Point", "coordinates": [ -73.993591, 40.743248 ] } },
{ "type": "Feature", "properties": { "id": "studio-museum", "name": "Studio Museum in Harlem", "dcla_match": "Studio Museum in Harlem", "category": "Art", "address": "144 West 125th Street, New York, NY 10027", "website": "https://www.studiomuseum.org/visit", "adult_price": 16, "student_price": 9, "ny_resident_price": null, "under_25_price": null, "standard_price_label": "Pay what you can; $16 adult / $9 student suggested", "hours": { "mon": null, "tue": null, "wed": [ 11, 18 ], "thu": [ 11, 18 ], "fri": [ 11, 21 ], "sat": [ 11, 18 ], "sun": [ 11, 18 ] }, "access_programs": [ { "days": [ "sun" ], "start": 11, "end": 18, "price": 0, "label": "Free Studio Sundays", "eligibility": "all", "frequency": "weekly", "reservation_required": true } ], "temporarily_closed": false, "notes": "The museum reopened in its new building and is open until 9 PM on Fridays.", "latitude": 40.808523, "longitude": -73.947278, "data_checked": "2026-07-24", "data_status": "verified-profile", "data_confidence": "Hours and prices manually checked", "admission_source": "https://www.nyc.gov/site/dcla/resources/free-and-suggested-admission.page", "network_node": 5266458357, "nearest_station": "125 St", "nearest_station_routes": "2 3", "nearest_station_ada": 0, "nearest_station_gtfs_id": "225", "station_walk_m": 144.4, "nearest_ada_station": "125 St", "nearest_ada_station_routes": "A C B D", "nearest_ada_station_gtfs_id": "A15", "ada_station_walk_m": 559.1, "columbia_euclidean_m": 1288.9, "columbia_walk_network_m": 1818.9, "network_detour_ratio": 1.411, "columbia_transit_station_path": [ "116", "117", "118", "119", "120", "227", "226", "225" ], "columbia_transit_state_path": [ "116|1", "117|1", "118|1", "119|1", "120|1", "120|3", "227|3", "226|3", "225|3" ], "columbia_transit_routes": "1 3", "columbia_transit_transfer_count": 1, "columbia_transit_ride_min": 18.0, "columbia_transit_total_min": 30.0, "columbia_transit_destination_station_id": "225", "columbia_transit_destination_station_name": "125 St", "columbia_transit_egress_walk_m": 243.7 }, "geometry": { "type": "Point", "coordinates": [ -73.947278, 40.808523 ] } },
{ "type": "Feature", "properties": { "id": "whitney", "name": "Whitney Museum of American Art", "dcla_match": "Whitney Museum of American Art", "category": "Art", "address": "99 Gansevoort Street, New York, NY 10014", "website": "https://whitney.org/visit/free-admission", "adult_price": 30, "student_price": 25, "ny_resident_price": null, "under_25_price": 0.0, "standard_price_label": "$30 adult; free for visitors 25 and under", "hours": { "mon": [ 10.5, 18 ], "tue": [ 10.5, 18 ], "wed": [ 10.5, 18 ], "thu": [ 10.5, 18 ], "fri": [ 10.5, 22 ], "sat": [ 10.5, 18 ], "sun": [ 10.5, 18 ] }, "access_programs": [ { "days": [ "fri" ], "start": 17, "end": 22, "price": 0, "label": "Free Friday Night, 5-10 PM", "eligibility": "all", "frequency": "weekly", "reservation_required": true } ], "temporarily_closed": false, "notes": "The summer 2026 schedule temporarily includes seven-day opening.", "latitude": 40.739386, "longitude": -74.008967, "data_checked": "2026-07-24", "data_status": "verified-profile", "data_confidence": "Hours and prices manually checked", "admission_source": "https://www.nyc.gov/site/dcla/resources/free-and-suggested-admission.page", "network_node": 4872626645, "nearest_station": "8 Av", "nearest_station_routes": "L", "nearest_station_ada": 1, "nearest_station_gtfs_id": "L01", "station_walk_m": 683.9, "nearest_ada_station": "8 Av", "nearest_ada_station_routes": "L", "nearest_ada_station_gtfs_id": "L01", "ada_station_walk_m": 683.9, "columbia_euclidean_m": 8538.9, "columbia_walk_network_m": 8733.8, "network_detour_ratio": 1.023, "columbia_transit_station_path": [ "116", "117", "118", "119", "120", "123", "127", "128", "132" ], "columbia_transit_state_path": [ "116|1", "117|1", "118|1", "119|1", "120|1", "120|2", "123|2", "127|2", "128|2", "132|2" ], "columbia_transit_routes": "1 2", "columbia_transit_transfer_count": 1, "columbia_transit_ride_min": 21.5, "columbia_transit_total_min": 40.2, "columbia_transit_destination_station_id": "132", "columbia_transit_destination_station_name": "14 St", "columbia_transit_egress_walk_m": 776.1 }, "geometry": { "type": "Point", "coordinates": [ -74.008967, 40.739386 ] } },
{ "type": "Feature", "properties": { "id": "met", "name": "The Metropolitan Museum of Art", "dcla_match": "Metropolitan Museum of Art", "category": "Art", "address": "1000 Fifth Avenue, New York, NY 10028", "website": "https://www.metmuseum.org/plan-your-visit", "adult_price": 30, "student_price": 17, "ny_resident_price": 1.0, "under_25_price": null, "standard_price_label": "$30 adult / $17 student; pay what you wish for NY residents and tri-state students", "hours": { "mon": [ 10, 17 ], "tue": [ 10, 17 ], "wed": null, "thu": [ 10, 17 ], "fri": [ 10, 21 ], "sat": [ 10, 21 ], "sun": [ 10, 17 ] }, "access_programs": [ ], "temporarily_closed": false, "notes": "The pay-what-you-wish minimum is $0.01; the filter represents it as $1.", "latitude": 40.778633, "longitude": -73.962546, "data_checked": "2026-07-24", "data_status": "verified-profile", "data_confidence": "Hours and prices manually checked", "admission_source": "https://www.nyc.gov/site/dcla/resources/free-and-suggested-admission.page", "network_node": 3392519844, "nearest_station": "77 St", "nearest_station_routes": "6", "nearest_station_ada": 0, "nearest_station_gtfs_id": "627", "station_walk_m": 811.7, "nearest_ada_station": "86 St", "nearest_ada_station_routes": "4 5 6", "nearest_ada_station_gtfs_id": "626", "ada_station_walk_m": 878.4, "columbia_euclidean_m": 3227.7, "columbia_walk_network_m": 4062.4, "network_detour_ratio": 1.259, "columbia_transit_station_path": [ "116", "117", "118", "119", "120", "121", "122", "123", "124", "125", "A24", "A22", "A21" ], "columbia_transit_state_path": [ "116|1", "117|1", "118|1", "119|1", "120|1", "121|1", "122|1", "123|1", "124|1", "125|1", "A24|A", "A22|A", "A21|A" ], "columbia_transit_routes": "1 A", "columbia_transit_transfer_count": 1, "columbia_transit_ride_min": 20.5, "columbia_transit_total_min": 43.1, "columbia_transit_destination_station_id": "A21", "columbia_transit_destination_station_name": "81 St-Museum of Natural History", "columbia_transit_egress_walk_m": 1090.3 }, "geometry": { "type": "Point", "coordinates": [ -73.962546, 40.778633 ] } },
{ "type": "Feature", "properties": { "id": "afam", "name": "American Folk Art Museum", "dcla_match": "American Folk Art Museum", "category": "Art", "address": "2 Lincoln Square, New York, NY 10023", "website": "https://folkartmuseum.org/news/visitor-guidelines/", "adult_price": 0, "student_price": 0, "ny_resident_price": 0.0, "under_25_price": 0.0, "standard_price_label": "Always free", "hours": { "mon": null, "tue": null, "wed": [ 11.5, 18 ], "thu": [ 11.5, 18 ], "fri": [ 11.5, 18 ], "sat": [ 11.5, 18 ], "sun": [ 11.5, 18 ] }, "access_programs": [ ], "temporarily_closed": false, "notes": "Admission is always free, but regular hours end at 6 PM.", "latitude": 40.773003, "longitude": -73.980154, "data_checked": "2026-07-24", "data_status": "verified-profile", "data_confidence": "Hours and prices manually checked", "admission_source": "https://www.nyc.gov/site/dcla/resources/free-and-suggested-admission.page", "network_node": 12317594557, "nearest_station": "66 St-Lincoln Center", "nearest_station_routes": "1", "nearest_station_ada": 1, "nearest_station_gtfs_id": "124", "station_walk_m": 266.1, "nearest_ada_station": "66 St-Lincoln Center", "nearest_ada_station_routes": "1", "nearest_ada_station_gtfs_id": "124", "ada_station_walk_m": 266.1, "columbia_euclidean_m": 4128.8, "columbia_walk_network_m": 4558.2, "network_detour_ratio": 1.104, "columbia_transit_station_path": [ "116", "117", "118", "119", "120", "121", "122", "123", "124" ], "columbia_transit_state_path": [ "116|1", "117|1", "118|1", "119|1", "120|1", "121|1", "122|1", "123|1", "124|1" ], "columbia_transit_routes": "1", "columbia_transit_transfer_count": 0, "columbia_transit_ride_min": 12.5, "columbia_transit_total_min": 24.0, "columbia_transit_destination_station_id": "124", "columbia_transit_destination_station_name": "66 St-Lincoln Center", "columbia_transit_egress_walk_m": 198.4 }, "geometry": { "type": "Point", "coordinates": [ -73.980154, 40.773003 ] } },
{ "type": "Feature", "properties": { "id": "museum-fit", "name": "The Museum at FIT", "dcla_match": null, "category": "Fashion", "address": "227 West 27th Street, New York, NY 10001", "website": "https://www.fitnyc.edu/museum/", "adult_price": 0, "student_price": 0, "ny_resident_price": 0.0, "under_25_price": 0.0, "standard_price_label": "Always free", "hours": { "mon": null, "tue": null, "wed": [ 12, 20 ], "thu": [ 12, 20 ], "fri": [ 12, 20 ], "sat": [ 10, 17 ], "sun": [ 10, 17 ] }, "access_programs": [ ], "temporarily_closed": false, "notes": "A free museum with three regular late evenings each week.", "latitude": 40.74672, "longitude": -73.9949, "data_checked": "2026-07-24", "data_status": "verified-profile", "data_confidence": "Hours and prices manually checked", "admission_source": "https://www.nyc.gov/site/dcla/resources/free-and-suggested-admission.page", "network_node": 12415830254, "nearest_station": "28 St", "nearest_station_routes": "1", "nearest_station_ada": 0, "nearest_station_gtfs_id": "129", "station_walk_m": 257.3, "nearest_ada_station": "34 St-Penn Station", "nearest_ada_station_routes": "1 2 3", "nearest_ada_station_gtfs_id": "128", "ada_station_walk_m": 672.0, "columbia_euclidean_m": 7303.2, "columbia_walk_network_m": 7805.9, "network_detour_ratio": 1.069, "columbia_transit_station_path": [ "116", "117", "118", "119", "120", "123", "127", "128", "129" ], "columbia_transit_state_path": [ "116|1", "117|1", "118|1", "119|1", "120|1", "120|2", "123|2", "127|2", "128|2", "129|2" ], "columbia_transit_routes": "1 2", "columbia_transit_transfer_count": 1, "columbia_transit_ride_min": 19.5, "columbia_transit_total_min": 30.4, "columbia_transit_destination_station_id": "129", "columbia_transit_destination_station_name": "28 St", "columbia_transit_egress_walk_m": 150.2 }, "geometry": { "type": "Point", "coordinates": [ -73.9949, 40.74672 ] } },
{ "type": "Feature", "properties": { "id": "leslie-lohman", "name": "Leslie-Lohman Museum of Art", "dcla_match": "Leslie-Lohman Museum of Gay and Lesbian Art", "category": "Queer Art", "address": "26 Wooster Street, New York, NY 10013", "website": "https://www.leslielohman.org/visit/", "adult_price": 10, "student_price": 10, "ny_resident_price": null, "under_25_price": null, "standard_price_label": "$10 suggested donation", "hours": { "mon": null, "tue": null, "wed": [ 12, 17 ], "thu": [ 12, 18 ], "fri": [ 12, 18 ], "sat": [ 12, 18 ], "sun": [ 12, 18 ] }, "access_programs": [ ], "temporarily_closed": false, "notes": "The admission amount is suggested rather than mandatory.", "latitude": 40.721705, "longitude": -74.003204, "data_checked": "2026-07-24", "data_status": "verified-profile", "data_confidence": "Hours and prices manually checked", "admission_source": "https://www.nyc.gov/site/dcla/resources/free-and-suggested-admission.page", "network_node": 8231922379, "nearest_station": "Canal St", "nearest_station_routes": "A C E", "nearest_station_ada": 0, "nearest_station_gtfs_id": "A34", "station_walk_m": 289.1, "nearest_ada_station": "Canal St", "nearest_ada_station_routes": "6", "nearest_ada_station_gtfs_id": "639", "ada_station_walk_m": 510.9, "columbia_euclidean_m": 10152.5, "columbia_walk_network_m": 10683.1, "network_detour_ratio": 1.052, "columbia_transit_station_path": [ "116", "117", "118", "119", "120", "123", "127", "128", "132", "133", "134", "135" ], "columbia_transit_state_path": [ "116|1", "117|1", "118|1", "119|1", "120|1", "120|2", "123|2", "127|2", "128|2", "132|2", "133|2", "134|2", "135|2" ], "columbia_transit_routes": "1 2", "columbia_transit_transfer_count": 1, "columbia_transit_ride_min": 26.0, "columbia_transit_total_min": 38.8, "columbia_transit_destination_station_id": "135", "columbia_transit_destination_station_name": "Canal St", "columbia_transit_egress_walk_m": 303.8 }, "geometry": { "type": "Point", "coordinates": [ -74.003204, 40.721705 ] } },
{ "type": "Feature", "properties": { "id": "drawing-center", "name": "The Drawing Center", "dcla_match": "Drawing Center, Inc.", "category": "Art", "address": "35 Wooster Street, New York, NY 10013", "website": "https://drawingcenter.org/visit", "adult_price": 0, "student_price": 0, "ny_resident_price": 0.0, "under_25_price": 0.0, "standard_price_label": "Always free", "hours": { "mon": null, "tue": null, "wed": [ 12, 18 ], "thu": [ 12, 18 ], "fri": [ 12, 18 ], "sat": [ 12, 18 ], "sun": [ 12, 18 ] }, "access_programs": [ ], "temporarily_closed": false, "notes": "Admission is free, but regular hours end at 6 PM.", "latitude": 40.722268, "longitude": -74.002753, "data_checked": "2026-07-24", "data_status": "verified-profile", "data_confidence": "Hours and prices manually checked", "admission_source": "https://www.nyc.gov/site/dcla/resources/free-and-suggested-admission.page", "network_node": 8231922381, "nearest_station": "Canal St", "nearest_station_routes": "A C E", "nearest_station_ada": 0, "nearest_station_gtfs_id": "A34", "station_walk_m": 289.0, "nearest_ada_station": "Canal St", "nearest_ada_station_routes": "6", "nearest_ada_station_gtfs_id": "639", "ada_station_walk_m": 532.8, "columbia_euclidean_m": 10080.8, "columbia_walk_network_m": 10659.4, "network_detour_ratio": 1.057, "columbia_transit_station_path": [ "116", "117", "118", "119", "120", "123", "127", "128", "132", "133", "134", "135" ], "columbia_transit_state_path": [ "116|1", "117|1", "118|1", "119|1", "120|1", "120|2", "123|2", "127|2", "128|2", "132|2", "133|2", "134|2", "135|2" ], "columbia_transit_routes": "1 2", "columbia_transit_transfer_count": 1, "columbia_transit_ride_min": 26.0, "columbia_transit_total_min": 39.0, "columbia_transit_destination_station_id": "135", "columbia_transit_destination_station_name": "Canal St", "columbia_transit_egress_walk_m": 321.4 }, "geometry": { "type": "Point", "coordinates": [ -74.002753, 40.722268 ] } },
{ "type": "Feature", "properties": { "id": "el-museo", "name": "El Museo del Barrio", "dcla_match": "Amigos del Museo del Barrio", "category": "Latinx Art", "address": "1230 Fifth Avenue, New York, NY 10029", "website": "https://elmuseo.org/visit/plan-your-visit/", "adult_price": 9, "student_price": 5, "ny_resident_price": 1.0, "under_25_price": null, "standard_price_label": "Pay what you can; $9 adult / $5 student suggested", "hours": { "mon": null, "tue": null, "wed": null, "thu": [ 11, 17 ], "fri": [ 11, 17 ], "sat": [ 11, 17 ], "sun": [ 11, 17 ] }, "access_programs": [ ], "temporarily_closed": false, "notes": "Admission also includes same-day entry to the Museum of the City of New York.", "latitude": 40.793072, "longitude": -73.951992, "data_checked": "2026-07-24", "data_status": "verified-profile", "data_confidence": "Hours and prices manually checked", "admission_source": "https://www.nyc.gov/site/dcla/resources/free-and-suggested-admission.page", "network_node": 7779641267, "nearest_station": "103 St", "nearest_station_routes": "6", "nearest_station_ada": 0, "nearest_station_gtfs_id": "624", "station_walk_m": 527.1, "nearest_ada_station": "96 St", "nearest_ada_station_routes": "Q", "nearest_ada_station_gtfs_id": "Q05", "ada_station_walk_m": 1345.8, "columbia_euclidean_m": 1849.6, "columbia_walk_network_m": 2337.3, "network_detour_ratio": 1.264, "columbia_transit_station_path": [ "116", "117", "118", "119", "120", "227" ], "columbia_transit_state_path": [ "116|1", "117|1", "118|1", "119|1", "120|1", "120|2", "227|2" ], "columbia_transit_routes": "1 2", "columbia_transit_transfer_count": 1, "columbia_transit_ride_min": 15.5, "columbia_transit_total_min": 35.0, "columbia_transit_destination_station_id": "227", "columbia_transit_destination_station_name": "110 St-Malcolm X Plaza", "columbia_transit_egress_walk_m": 843.9 }, "geometry": { "type": "Point", "coordinates": [ -73.951992, 40.793072 ] } },
{ "type": "Feature", "properties": { "id": "mcny", "name": "Museum of the City of New York", "dcla_match": "Museum of the City of New York", "category": "History", "address": "1220 Fifth Avenue, New York, NY 10029", "website": "https://www.mcny.org/visit", "adult_price": 23, "student_price": 14, "ny_resident_price": 1.0, "under_25_price": null, "standard_price_label": "$23 adult / $14 student; pay what you can for NYC residents", "hours": { "mon": [ 10, 17 ], "tue": [ 10, 17 ], "wed": [ 10, 21 ], "thu": [ 10, 17 ], "fri": [ 10, 17 ], "sat": [ 10, 18 ], "sun": [ 10, 18 ] }, "access_programs": [ { "days": [ "wed" ], "start": 10, "end": 21, "price": 0, "label": "Free Wednesday; open until 9 PM in Summer 2026", "eligibility": "all", "frequency": "seasonal-weekly", "reservation_required": false } ], "temporarily_closed": false, "notes": "Summer Wednesday late hours run July 1 through September 2, 2026.", "latitude": 40.792438, "longitude": -73.952448, "data_checked": "2026-07-24", "data_status": "verified-profile", "data_confidence": "Hours and prices manually checked", "admission_source": "https://www.nyc.gov/site/dcla/resources/free-and-suggested-admission.page", "network_node": 7779641283, "nearest_station": "103 St", "nearest_station_routes": "6", "nearest_station_ada": 0, "nearest_station_gtfs_id": "624", "station_walk_m": 482.9, "nearest_ada_station": "96 St", "nearest_ada_station_routes": "Q", "nearest_ada_station_gtfs_id": "Q05", "ada_station_walk_m": 1299.2, "columbia_euclidean_m": 1894.2, "columbia_walk_network_m": 2417.3, "network_detour_ratio": 1.276, "columbia_transit_station_path": [ "116", "117", "118", "119", "120", "227" ], "columbia_transit_state_path": [ "116|1", "117|1", "118|1", "119|1", "120|1", "120|2", "227|2" ], "columbia_transit_routes": "1 2", "columbia_transit_transfer_count": 1, "columbia_transit_ride_min": 15.5, "columbia_transit_total_min": 36.3, "columbia_transit_destination_station_id": "227", "columbia_transit_destination_station_name": "110 St-Malcolm X Plaza", "columbia_transit_egress_walk_m": 944.1 }, "geometry": { "type": "Point", "coordinates": [ -73.952448, 40.792438 ] } },
{ "type": "Feature", "properties": { "id": "nmai", "name": "National Museum of the American Indian", "dcla_match": null, "category": "Indigenous Culture", "address": "One Bowling Green, New York, NY 10004", "website": "https://americanindian.si.edu/visit/ny", "adult_price": 0, "student_price": 0, "ny_resident_price": 0.0, "under_25_price": 0.0, "standard_price_label": "Always free", "hours": { "mon": [ 10, 17 ], "tue": [ 10, 17 ], "wed": [ 10, 17 ], "thu": [ 10, 17 ], "fri": [ 10, 17 ], "sat": [ 10, 17 ], "sun": [ 10, 17 ] }, "access_programs": [ ], "temporarily_closed": false, "notes": "Admission is always free; no ticket is required.", "latitude": 40.704, "longitude": -74.0137, "data_checked": "2026-07-24", "data_status": "verified-profile", "data_confidence": "Hours and prices manually checked", "admission_source": "https://www.nyc.gov/site/dcla/resources/free-and-suggested-admission.page", "network_node": 1289069581, "nearest_station": "Whitehall St-South Ferry", "nearest_station_routes": "R W", "nearest_station_ada": 0, "nearest_station_gtfs_id": "R27", "station_walk_m": 107.8, "nearest_ada_station": "Bowling Green", "nearest_ada_station_routes": "4 5", "nearest_ada_station_gtfs_id": "420", "ada_station_walk_m": 147.4, "columbia_euclidean_m": 12305.4, "columbia_walk_network_m": 12810.4, "network_detour_ratio": 1.041, "columbia_transit_station_path": [ "116", "117", "118", "119", "120", "123", "127", "128", "132", "137", "138", "139", "142" ], "columbia_transit_state_path": [ "116|1", "117|1", "118|1", "119|1", "120|1", "120|3", "123|3", "127|3", "128|3", "132|3", "137|3", "137|1", "138|1", "139|1", "142|1" ], "columbia_transit_routes": "1 3 1", "columbia_transit_transfer_count": 2, "columbia_transit_ride_min": 34.5, "columbia_transit_total_min": 46.3, "columbia_transit_destination_station_id": "142", "columbia_transit_destination_station_name": "South Ferry", "columbia_transit_egress_walk_m": 223.7 }, "geometry": { "type": "Point", "coordinates": [ -74.0137, 40.704 ] } }
]
}
