{
"type": "FeatureCollection",
"name": "columbia_transit_routes",
"crs": { "type": "name", "properties": { "name": "urn:ogc:def:crs:OGC:1.3:CRS84" } },
"features": [
{ "type": "Feature", "properties": { "id": "911-museum", "venue_name": "9/11 Memorial & Museum", "station_path": [ "116", "117", "118", "119", "120", "123", "127", "128", "132", "137", "138" ], "state_path": [ "116|1", "117|1", "118|1", "119|1", "120|1", "120|3", "123|3", "127|3", "128|3", "132|3", "137|3", "137|1", "138|1" ], "route_names": "1 3 1", "transfer_count": 2, "ride_minutes": 31.0, "total_minutes": 43.6, "destination_station_id": "138", "destination_station_name": "WTC Cortlandt", "egress_walk_m": 288.9 }, "geometry": { "type": "LineString", "coordinates": [ [ -73.958372, 40.815581 ], [ -73.96411, 40.807722 ], [ -73.966847, 40.803967 ], [ -73.968379, 40.799446 ], [ -73.972323, 40.793919 ], [ -73.98197, 40.778453 ], [ -73.987495, 40.75529 ], [ -73.991057, 40.750373 ], [ -74.000201, 40.737826 ], [ -74.009266, 40.715478 ], [ -74.012188, 40.711835 ] ] } },
{ "type": "Feature", "properties": { "id": "asia-society", "venue_name": "Asia Society Museum", "station_path": [ "116", "117", "118", "119", "120", "123", "127", "902", "901", "631", "629", "628" ], "state_path": [ "116|1", "117|1", "118|1", "119|1", "120|1", "120|3", "123|3", "127|3", "902|S", "901|S", "631|4", "629|4", "628|4" ], "route_names": "1 3 S 4", "transfer_count": 3, "ride_minutes": 29.5, "total_minutes": 41.9, "destination_station_id": "628", "destination_station_name": "68 St-Hunter College", "egress_walk_m": 272.6 }, "geometry": { "type": "LineString", "coordinates": [ [ -73.958372, 40.815581 ], [ -73.96411, 40.807722 ], [ -73.966847, 40.803967 ], [ -73.968379, 40.799446 ], [ -73.972323, 40.793919 ], [ -73.98197, 40.778453 ], [ -73.987495, 40.75529 ], [ -73.986229, 40.755983 ], [ -73.979189, 40.752769 ], [ -73.976848, 40.751776 ], [ -73.967967, 40.762526 ], [ -73.96387, 40.768141 ] ] } },
{ "type": "Feature", "properties": { "id": "china-institute", "venue_name": "China Institute Gallery", "station_path": [ "116", "117", "118", "119", "120", "123", "127", "128", "132", "137", "138", "139" ], "state_path": [ "116|1", "117|1", "118|1", "119|1", "120|1", "120|3", "123|3", "127|3", "128|3", "132|3", "137|3", "137|1", "138|1", "139|1" ], "route_names": "1 3 1", "transfer_count": 2, "ride_minutes": 32.5, "total_minutes": 43.0, "destination_station_id": "139", "destination_station_name": "Rector St", "egress_walk_m": 121.3 }, "geometry": { "type": "LineString", "coordinates": [ [ -73.958372, 40.815581 ], [ -73.96411, 40.807722 ], [ -73.966847, 40.803967 ], [ -73.968379, 40.799446 ], [ -73.972323, 40.793919 ], [ -73.98197, 40.778453 ], [ -73.987495, 40.75529 ], [ -73.991057, 40.750373 ], [ -74.000201, 40.737826 ], [ -74.009266, 40.715478 ], [ -74.012188, 40.711835 ], [ -74.013783, 40.707513 ] ] } },
{ "type": "Feature", "properties": { "id": "cooper-hewitt", "venue_name": "Cooper Hewitt, Smithsonian Design Museum", "station_path": [ "116", "117", "118", "119", "120", "121", "122", "123", "124", "125", "A24", "A22", "A21", "A20" ], "state_path": [ "116|1", "117|1", "118|1", "119|1", "120|1", "121|1", "122|1", "123|1", "124|1", "125|1", "A24|B", "A22|B", "A21|B", "A20|B" ], "route_names": "1 B", "transfer_count": 1, "ride_minutes": 22.0, "total_minutes": 46.0, "destination_station_id": "A20", "destination_station_name": "86 St", "egress_walk_m": 1202.4 }, "geometry": { "type": "LineString", "coordinates": [ [ -73.958372, 40.815581 ], [ -73.96411, 40.807722 ], [ -73.966847, 40.803967 ], [ -73.968379, 40.799446 ], [ -73.972323, 40.793919 ], [ -73.976218, 40.788644 ], [ -73.979917, 40.783934 ], [ -73.98197, 40.778453 ], [ -73.982209, 40.77344 ], [ -73.981929, 40.768247 ], [ -73.981736, 40.768296 ], [ -73.97641, 40.775594 ], [ -73.972143, 40.781433 ], [ -73.968916, 40.785868 ] ] } },
{ "type": "Feature", "properties": { "id": "frick", "venue_name": "The Frick Collection", "station_path": [ "116", "117", "118", "119", "120", "121", "122", "123", "124", "125", "A24", "A22" ], "state_path": [ "116|1", "117|1", "118|1", "119|1", "120|1", "121|1", "122|1", "123|1", "124|1", "125|1", "A24|C", "A22|C" ], "route_names": "1 C", "transfer_count": 1, "ride_minutes": 19.0, "total_minutes": 41.3, "destination_station_id": "A22", "destination_station_name": "72 St", "egress_walk_m": 1060.8 }, "geometry": { "type": "LineString", "coordinates": [ [ -73.958372, 40.815581 ], [ -73.96411, 40.807722 ], [ -73.966847, 40.803967 ], [ -73.968379, 40.799446 ], [ -73.972323, 40.793919 ], [ -73.976218, 40.788644 ], [ -73.979917, 40.783934 ], [ -73.98197, 40.778453 ], [ -73.982209, 40.77344 ], [ -73.981929, 40.768247 ], [ -73.981736, 40.768296 ], [ -73.97641, 40.775594 ] ] } },
{ "type": "Feature", "properties": { "id": "guggenheim", "venue_name": "Solomon R. Guggenheim Museum", "station_path": [ "116", "117", "118", "119", "120", "121", "122", "123", "124", "125", "A24", "A22", "A21", "A20" ], "state_path": [ "116|1", "117|1", "118|1", "119|1", "120|1", "121|1", "122|1", "123|1", "124|1", "125|1", "A24|B", "A22|B", "A21|B", "A20|B" ], "route_names": "1 B", "transfer_count": 1, "ride_minutes": 22.0, "total_minutes": 45.2, "destination_station_id": "A20", "destination_station_name": "86 St", "egress_walk_m": 1133.6 }, "geometry": { "type": "LineString", "coordinates": [ [ -73.958372, 40.815581 ], [ -73.96411, 40.807722 ], [ -73.966847, 40.803967 ], [ -73.968379, 40.799446 ], [ -73.972323, 40.793919 ], [ -73.976218, 40.788644 ], [ -73.979917, 40.783934 ], [ -73.98197, 40.778453 ], [ -73.982209, 40.77344 ], [ -73.981929, 40.768247 ], [ -73.981736, 40.768296 ], [ -73.97641, 40.775594 ], [ -73.972143, 40.781433 ], [ -73.968916, 40.785868 ] ] } },
{ "type": "Feature", "properties": { "id": "icp", "venue_name": "International Center of Photography", "station_path": [ "116", "117", "118", "119", "120", "121", "122", "123", "124", "125", "A24", "A27", "A28", "A31", "A32", "D20", "D21", "F14", "F15" ], "state_path": [ "116|1", "117|1", "118|1", "119|1", "120|1", "121|1", "122|1", "123|1", "124|1", "125|1", "A24|A", "A27|A", "A28|A", "A31|A", "A32|A", "D20|F", "D21|F", "F14|F", "F15|F" ], "route_names": "1 A F", "transfer_count": 2, "ride_minutes": 34.0, "total_minutes": 44.6, "destination_station_id": "F15", "destination_station_name": "Delancey St-Essex St", "egress_walk_m": 126.3 }, "geometry": { "type": "LineString", "coordinates": [ [ -73.958372, 40.815581 ], [ -73.96411, 40.807722 ], [ -73.966847, 40.803967 ], [ -73.968379, 40.799446 ], [ -73.972323, 40.793919 ], [ -73.976218, 40.788644 ], [ -73.979917, 40.783934 ], [ -73.98197, 40.778453 ], [ -73.982209, 40.77344 ], [ -73.981929, 40.768247 ], [ -73.981736, 40.768296 ], [ -73.989735, 40.757308 ], [ -73.993391, 40.752287 ], [ -74.00169, 40.740893 ], [ -74.000495, 40.732338 ], [ -74.000495, 40.732338 ], [ -73.996204, 40.725297 ], [ -73.989938, 40.723402 ], [ -73.988114, 40.718611 ] ] } },
{ "type": "Feature", "properties": { "id": "japan-society", "venue_name": "Japan Society Gallery", "station_path": [ "116", "117", "118", "119", "120", "123", "127", "725", "724", "723" ], "state_path": [ "116|1", "117|1", "118|1", "119|1", "120|1", "120|3", "123|3", "127|3", "725|7", "724|7", "723|7" ], "route_names": "1 3 7", "transfer_count": 2, "ride_minutes": 23.5, "total_minutes": 42.6, "destination_station_id": "723", "destination_station_name": "Grand Central-42 St", "egress_walk_m": 807.9 }, "geometry": { "type": "LineString", "coordinates": [ [ -73.958372, 40.815581 ], [ -73.96411, 40.807722 ], [ -73.966847, 40.803967 ], [ -73.968379, 40.799446 ], [ -73.972323, 40.793919 ], [ -73.98197, 40.778453 ], [ -73.987495, 40.75529 ], [ -73.987691, 40.755477 ], [ -73.981963, 40.753821 ], [ -73.976041, 40.751431 ] ] } },
{ "type": "Feature", "properties": { "id": "jewish-museum", "venue_name": "The Jewish Museum", "station_path": [ "116", "115", "114", "113", "112", "A09", "A12", "A15", "A16", "A17", "A18", "A19" ], "state_path": [ "116|1", "115|1", "114|1", "113|1", "112|1", "A09|A", "A12|A", "A15|A", "A16|A", "A17|A", "A18|A", "A19|A" ], "route_names": "1 A", "transfer_count": 1, "ride_minutes": 22.5, "total_minutes": 46.6, "destination_station_id": "A19", "destination_station_name": "96 St", "egress_walk_m": 1205.1 }, "geometry": { "type": "LineString", "coordinates": [ [ -73.958372, 40.815581 ], [ -73.953676, 40.822008 ], [ -73.95036, 40.826551 ], [ -73.94489, 40.834041 ], [ -73.940133, 40.840556 ], [ -73.939561, 40.840719 ], [ -73.944216, 40.824783 ], [ -73.952343, 40.811109 ], [ -73.954882, 40.805085 ], [ -73.958161, 40.800603 ], [ -73.961454, 40.796092 ], [ -73.964696, 40.791642 ] ] } },
{ "type": "Feature", "properties": { "id": "morgan", "venue_name": "The Morgan Library & Museum", "station_path": [ "116", "117", "118", "119", "120", "123", "127", "902", "901" ], "state_path": [ "116|1", "117|1", "118|1", "119|1", "120|1", "120|3", "123|3", "127|3", "902|S", "901|S" ], "route_names": "1 3 S", "transfer_count": 2, "ride_minutes": 22.0, "total_minutes": 37.1, "destination_station_id": "901", "destination_station_name": "Grand Central-42 St", "egress_walk_m": 484.9 }, "geometry": { "type": "LineString", "coordinates": [ [ -73.958372, 40.815581 ], [ -73.96411, 40.807722 ], [ -73.966847, 40.803967 ], [ -73.968379, 40.799446 ], [ -73.972323, 40.793919 ], [ -73.98197, 40.778453 ], [ -73.987495, 40.75529 ], [ -73.986229, 40.755983 ], [ -73.979189, 40.752769 ] ] } },
{ "type": "Feature", "properties": { "id": "mjh", "venue_name": "Museum of Jewish Heritage", "station_path": [ "116", "117", "118", "119", "120", "123", "127", "128", "132", "137", "138", "139" ], "state_path": [ "116|1", "117|1", "118|1", "119|1", "120|1", "120|3", "123|3", "127|3", "128|3", "132|3", "137|3", "137|1", "138|1", "139|1" ], "route_names": "1 3 1", "transfer_count": 2, "ride_minutes": 32.5, "total_minutes": 46.7, "destination_station_id": "139", "destination_station_name": "Rector St", "egress_walk_m": 418.4 }, "geometry": { "type": "LineString", "coordinates": [ [ -73.958372, 40.815581 ], [ -73.96411, 40.807722 ], [ -73.966847, 40.803967 ], [ -73.968379, 40.799446 ], [ -73.972323, 40.793919 ], [ -73.98197, 40.778453 ], [ -73.987495, 40.75529 ], [ -73.991057, 40.750373 ], [ -74.000201, 40.737826 ], [ -74.009266, 40.715478 ], [ -74.012188, 40.711835 ], [ -74.013783, 40.707513 ] ] } },
{ "type": "Feature", "properties": { "id": "moma", "venue_name": "The Museum of Modern Art", "station_path": [ "116", "117", "118", "119", "120", "121", "122", "123", "124", "125", "126" ], "state_path": [ "116|1", "117|1", "118|1", "119|1", "120|1", "121|1", "122|1", "123|1", "124|1", "125|1", "126|1" ], "route_names": "1", "transfer_count": 0, "ride_minutes": 16.0, "total_minutes": 33.1, "destination_station_id": "126", "destination_station_name": "50 St", "egress_walk_m": 649.4 }, "geometry": { "type": "LineString", "coordinates": [ [ -73.958372, 40.815581 ], [ -73.96411, 40.807722 ], [ -73.966847, 40.803967 ], [ -73.968379, 40.799446 ], [ -73.972323, 40.793919 ], [ -73.976218, 40.788644 ], [ -73.979917, 40.783934 ], [ -73.98197, 40.778453 ], [ -73.982209, 40.77344 ], [ -73.981929, 40.768247 ], [ -73.983849, 40.761728 ] ] } },
{ "type": "Feature", "properties": { "id": "neue-galerie", "venue_name": "Neue Galerie New York", "station_path": [ "116", "117", "118", "119", "120", "121", "122", "123", "124", "125", "A24", "A22", "A21", "A20" ], "state_path": [ "116|1", "117|1", "118|1", "119|1", "120|1", "121|1", "122|1", "123|1", "124|1", "125|1", "A24|B", "A22|B", "A21|B", "A20|B" ], "route_names": "1 B", "transfer_count": 1, "ride_minutes": 22.0, "total_minutes": 44.8, "destination_station_id": "A20", "destination_station_name": "86 St", "egress_walk_m": 1105.3 }, "geometry": { "type": "LineString", "coordinates": [ [ -73.958372, 40.815581 ], [ -73.96411, 40.807722 ], [ -73.966847, 40.803967 ], [ -73.968379, 40.799446 ], [ -73.972323, 40.793919 ], [ -73.976218, 40.788644 ], [ -73.979917, 40.783934 ], [ -73.98197, 40.778453 ], [ -73.982209, 40.77344 ], [ -73.981929, 40.768247 ], [ -73.981736, 40.768296 ], [ -73.97641, 40.775594 ], [ -73.972143, 40.781433 ], [ -73.968916, 40.785868 ] ] } },
{ "type": "Feature", "properties": { "id": "nyhistory", "venue_name": "The New York Historical", "station_path": [ "116", "117", "118", "119", "120", "121", "122" ], "state_path": [ "116|1", "117|1", "118|1", "119|1", "120|1", "121|1", "122|1" ], "route_names": "1", "transfer_count": 0, "ride_minutes": 9.5, "total_minutes": 29.1, "destination_station_id": "122", "destination_station_name": "79 St", "egress_walk_m": 844.9 }, "geometry": { "type": "LineString", "coordinates": [ [ -73.958372, 40.815581 ], [ -73.96411, 40.807722 ], [ -73.966847, 40.803967 ], [ -73.968379, 40.799446 ], [ -73.972323, 40.793919 ], [ -73.976218, 40.788644 ], [ -73.979917, 40.783934 ] ] } },
{ "type": "Feature", "properties": { "id": "poster-house", "venue_name": "Poster House", "station_path": [ "116", "117", "118", "119", "120", "123", "127", "128", "129", "130" ], "state_path": [ "116|1", "117|1", "118|1", "119|1", "120|1", "120|2", "123|2", "127|2", "128|2", "129|2", "130|2" ], "route_names": "1 2", "transfer_count": 1, "ride_minutes": 21.0, "total_minutes": 32.6, "destination_station_id": "130", "destination_station_name": "23 St", "egress_walk_m": 207.6 }, "geometry": { "type": "LineString", "coordinates": [ [ -73.958372, 40.815581 ], [ -73.96411, 40.807722 ], [ -73.966847, 40.803967 ], [ -73.968379, 40.799446 ], [ -73.972323, 40.793919 ], [ -73.98197, 40.778453 ], [ -73.987495, 40.75529 ], [ -73.991057, 40.750373 ], [ -73.993365, 40.747215 ], [ -73.995657, 40.744081 ] ] } },
{ "type": "Feature", "properties": { "id": "studio-museum", "venue_name": "Studio Museum in Harlem", "station_path": [ "116", "117", "118", "119", "120", "227", "226", "225" ], "state_path": [ "116|1", "117|1", "118|1", "119|1", "120|1", "120|3", "227|3", "226|3", "225|3" ], "route_names": "1 3", "transfer_count": 1, "ride_minutes": 18.0, "total_minutes": 30.0, "destination_station_id": "225", "destination_station_name": "125 St", "egress_walk_m": 243.7 }, "geometry": { "type": "LineString", "coordinates": [ [ -73.958372, 40.815581 ], [ -73.96411, 40.807722 ], [ -73.966847, 40.803967 ], [ -73.968379, 40.799446 ], [ -73.972323, 40.793919 ], [ -73.951822, 40.799075 ], [ -73.949625, 40.802098 ], [ -73.945495, 40.807754 ] ] } },
{ "type": "Feature", "properties": { "id": "whitney", "venue_name": "Whitney Museum of American Art", "station_path": [ "116", "117", "118", "119", "120", "123", "127", "128", "132" ], "state_path": [ "116|1", "117|1", "118|1", "119|1", "120|1", "120|2", "123|2", "127|2", "128|2", "132|2" ], "route_names": "1 2", "transfer_count": 1, "ride_minutes": 21.5, "total_minutes": 40.2, "destination_station_id": "132", "destination_station_name": "14 St", "egress_walk_m": 776.1 }, "geometry": { "type": "LineString", "coordinates": [ [ -73.958372, 40.815581 ], [ -73.96411, 40.807722 ], [ -73.966847, 40.803967 ], [ -73.968379, 40.799446 ], [ -73.972323, 40.793919 ], [ -73.98197, 40.778453 ], [ -73.987495, 40.75529 ], [ -73.991057, 40.750373 ], [ -74.000201, 40.737826 ] ] } },
{ "type": "Feature", "properties": { "id": "met", "venue_name": "The Metropolitan Museum of Art", "station_path": [ "116", "117", "118", "119", "120", "121", "122", "123", "124", "125", "A24", "A22", "A21" ], "state_path": [ "116|1", "117|1", "118|1", "119|1", "120|1", "121|1", "122|1", "123|1", "124|1", "125|1", "A24|A", "A22|A", "A21|A" ], "route_names": "1 A", "transfer_count": 1, "ride_minutes": 20.5, "total_minutes": 43.1, "destination_station_id": "A21", "destination_station_name": "81 St-Museum of Natural History", "egress_walk_m": 1090.3 }, "geometry": { "type": "LineString", "coordinates": [ [ -73.958372, 40.815581 ], [ -73.96411, 40.807722 ], [ -73.966847, 40.803967 ], [ -73.968379, 40.799446 ], [ -73.972323, 40.793919 ], [ -73.976218, 40.788644 ], [ -73.979917, 40.783934 ], [ -73.98197, 40.778453 ], [ -73.982209, 40.77344 ], [ -73.981929, 40.768247 ], [ -73.981736, 40.768296 ], [ -73.97641, 40.775594 ], [ -73.972143, 40.781433 ] ] } },
{ "type": "Feature", "properties": { "id": "afam", "venue_name": "American Folk Art Museum", "station_path": [ "116", "117", "118", "119", "120", "121", "122", "123", "124" ], "state_path": [ "116|1", "117|1", "118|1", "119|1", "120|1", "121|1", "122|1", "123|1", "124|1" ], "route_names": "1", "transfer_count": 0, "ride_minutes": 12.5, "total_minutes": 24.0, "destination_station_id": "124", "destination_station_name": "66 St-Lincoln Center", "egress_walk_m": 198.4 }, "geometry": { "type": "LineString", "coordinates": [ [ -73.958372, 40.815581 ], [ -73.96411, 40.807722 ], [ -73.966847, 40.803967 ], [ -73.968379, 40.799446 ], [ -73.972323, 40.793919 ], [ -73.976218, 40.788644 ], [ -73.979917, 40.783934 ], [ -73.98197, 40.778453 ], [ -73.982209, 40.77344 ] ] } },
{ "type": "Feature", "properties": { "id": "museum-fit", "venue_name": "The Museum at FIT", "station_path": [ "116", "117", "118", "119", "120", "123", "127", "128", "129" ], "state_path": [ "116|1", "117|1", "118|1", "119|1", "120|1", "120|2", "123|2", "127|2", "128|2", "129|2" ], "route_names": "1 2", "transfer_count": 1, "ride_minutes": 19.5, "total_minutes": 30.4, "destination_station_id": "129", "destination_station_name": "28 St", "egress_walk_m": 150.2 }, "geometry": { "type": "LineString", "coordinates": [ [ -73.958372, 40.815581 ], [ -73.96411, 40.807722 ], [ -73.966847, 40.803967 ], [ -73.968379, 40.799446 ], [ -73.972323, 40.793919 ], [ -73.98197, 40.778453 ], [ -73.987495, 40.75529 ], [ -73.991057, 40.750373 ], [ -73.993365, 40.747215 ] ] } },
{ "type": "Feature", "properties": { "id": "leslie-lohman", "venue_name": "Leslie-Lohman Museum of Art", "station_path": [ "116", "117", "118", "119", "120", "123", "127", "128", "132", "133", "134", "135" ], "state_path": [ "116|1", "117|1", "118|1", "119|1", "120|1", "120|2", "123|2", "127|2", "128|2", "132|2", "133|2", "134|2", "135|2" ], "route_names": "1 2", "transfer_count": 1, "ride_minutes": 26.0, "total_minutes": 38.8, "destination_station_id": "135", "destination_station_name": "Canal St", "egress_walk_m": 303.8 }, "geometry": { "type": "LineString", "coordinates": [ [ -73.958372, 40.815581 ], [ -73.96411, 40.807722 ], [ -73.966847, 40.803967 ], [ -73.968379, 40.799446 ], [ -73.972323, 40.793919 ], [ -73.98197, 40.778453 ], [ -73.987495, 40.75529 ], [ -73.991057, 40.750373 ], [ -74.000201, 40.737826 ], [ -74.002906, 40.733422 ], [ -74.005367, 40.728251 ], [ -74.006277, 40.722854 ] ] } },
{ "type": "Feature", "properties": { "id": "drawing-center", "venue_name": "The Drawing Center", "station_path": [ "116", "117", "118", "119", "120", "123", "127", "128", "132", "133", "134", "135" ], "state_path": [ "116|1", "117|1", "118|1", "119|1", "120|1", "120|2", "123|2", "127|2", "128|2", "132|2", "133|2", "134|2", "135|2" ], "route_names": "1 2", "transfer_count": 1, "ride_minutes": 26.0, "total_minutes": 39.0, "destination_station_id": "135", "destination_station_name": "Canal St", "egress_walk_m": 321.4 }, "geometry": { "type": "LineString", "coordinates": [ [ -73.958372, 40.815581 ], [ -73.96411, 40.807722 ], [ -73.966847, 40.803967 ], [ -73.968379, 40.799446 ], [ -73.972323, 40.793919 ], [ -73.98197, 40.778453 ], [ -73.987495, 40.75529 ], [ -73.991057, 40.750373 ], [ -74.000201, 40.737826 ], [ -74.002906, 40.733422 ], [ -74.005367, 40.728251 ], [ -74.006277, 40.722854 ] ] } },
{ "type": "Feature", "properties": { "id": "el-museo", "venue_name": "El Museo del Barrio", "station_path": [ "116", "117", "118", "119", "120", "227" ], "state_path": [ "116|1", "117|1", "118|1", "119|1", "120|1", "120|2", "227|2" ], "route_names": "1 2", "transfer_count": 1, "ride_minutes": 15.5, "total_minutes": 35.0, "destination_station_id": "227", "destination_station_name": "110 St-Malcolm X Plaza", "egress_walk_m": 843.9 }, "geometry": { "type": "LineString", "coordinates": [ [ -73.958372, 40.815581 ], [ -73.96411, 40.807722 ], [ -73.966847, 40.803967 ], [ -73.968379, 40.799446 ], [ -73.972323, 40.793919 ], [ -73.951822, 40.799075 ] ] } },
{ "type": "Feature", "properties": { "id": "mcny", "venue_name": "Museum of the City of New York", "station_path": [ "116", "117", "118", "119", "120", "227" ], "state_path": [ "116|1", "117|1", "118|1", "119|1", "120|1", "120|2", "227|2" ], "route_names": "1 2", "transfer_count": 1, "ride_minutes": 15.5, "total_minutes": 36.3, "destination_station_id": "227", "destination_station_name": "110 St-Malcolm X Plaza", "egress_walk_m": 944.1 }, "geometry": { "type": "LineString", "coordinates": [ [ -73.958372, 40.815581 ], [ -73.96411, 40.807722 ], [ -73.966847, 40.803967 ], [ -73.968379, 40.799446 ], [ -73.972323, 40.793919 ], [ -73.951822, 40.799075 ] ] } },
{ "type": "Feature", "properties": { "id": "nmai", "venue_name": "National Museum of the American Indian", "station_path": [ "116", "117", "118", "119", "120", "123", "127", "128", "132", "137", "138", "139", "142" ], "state_path": [ "116|1", "117|1", "118|1", "119|1", "120|1", "120|3", "123|3", "127|3", "128|3", "132|3", "137|3", "137|1", "138|1", "139|1", "142|1" ], "route_names": "1 3 1", "transfer_count": 2, "ride_minutes": 34.5, "total_minutes": 46.3, "destination_station_id": "142", "destination_station_name": "South Ferry", "egress_walk_m": 223.7 }, "geometry": { "type": "LineString", "coordinates": [ [ -73.958372, 40.815581 ], [ -73.96411, 40.807722 ], [ -73.966847, 40.803967 ], [ -73.968379, 40.799446 ], [ -73.972323, 40.793919 ], [ -73.98197, 40.778453 ], [ -73.987495, 40.75529 ], [ -73.991057, 40.750373 ], [ -74.000201, 40.737826 ], [ -74.009266, 40.715478 ], [ -74.012188, 40.711835 ], [ -74.013783, 40.707513 ], [ -74.013664, 40.702068 ] ] } }
]
}
